NORAD_CAT_ID,OBJECT_NAME,OBJECT_TYPE,EPOCH,MEAN_MOTION,ECCENTRICITY,INCLINATION,RA_OF_ASC_NODE,ARG_OF_PERICENTER,MEAN_ANOMALY,BSTAR,MEAN_MOTION_DOT,MEAN_MOTION_DDOT,TLE_LINE0,TLE_LINE1,TLE_LINE2,SEMIMAJOR_AXIS,PERIOD,APOGEE,PERIGEE,DECAYED
53855.0,STARLINK-4703,PAYLOAD,2023-04-19 10:00:00,15.07198087,0.0001641,53.2165,351.0948,92.6855,349.7759,-0.00037285,-5.953e-05,0.0,0 STARLINK-4703,1 53855U 22114AP  23109.41667824 -.00005953  00000-0 -37285-3 0  9991,2 53855  53.2165 351.0948 0001641  92.6855 349.7759 15.07198087 33126,6922.904,95.542,545.905,543.633,0.0
53855.0,STARLINK-4703,PAYLOAD,2023-04-19 14:00:01,15.0717662,0.0001565,53.2163,350.3478,98.7814,168.5055,0.0027735,0.00042154,0.0,0 STARLINK-4703,1 53855U 22114AP  23109.58334491  .00042154  00000-0  27735-2 0  9990,2 53855  53.2163 350.3478 0001565  98.7814 168.5055 15.07176620  1301,6922.969,95.543,545.918,543.751,0.0
53855.0,STARLINK-4703,PAYLOAD,2023-04-19 22:00:00,15.07218685,0.0001506,53.2163,348.8568,92.717,184.1815,-0.0029783,-0.00045348,0.0,0 STARLINK-4703,1 53855U 22114AP  23109.91667824 -.00045348  00000-0 -29783-2 0  9991,2 53855  53.2163 348.8568 0001506  92.7170 184.1815 15.07218685  1303,6922.841,95.54,545.748,543.663,0.0
53855.0,STARLINK-4703,PAYLOAD,2023-04-20 14:00:01,15.0719235,0.0001377,53.2164,345.8699,99.345,196.8125,0.0044433,0.00067982,0.0,0 STARLINK-4703,1 53855U 22114AP  23110.58334491  .00067982  00000-0  44433-2 0  9992,2 53855  53.2164 345.8699 0001377  99.3450 196.8125 15.07192350  1300,6922.921,95.542,545.739,543.833,0.0
53855.0,STARLINK-4703,PAYLOAD,2023-04-20 22:00:00,15.07250396,0.0001377,53.2164,344.3789,86.8836,218.8999,-0.0063324,-0.00095508,0.0,0 STARLINK-4703,1 53855U 22114AP  23110.91667824 -.00095508  00000-0 -63324-2 0  9995,2 53855  53.2164 344.3789 0001377  86.8836 218.8999 15.07250396  1302,6922.743,95.538,545.562,543.655,0.0
53855.0,STARLINK-4703,PAYLOAD,2023-04-21 14:00:01,15.07183289,0.0001319,53.2166,341.3919,93.2943,231.7533,0.0038236,0.00058367,0.0,0 STARLINK-4703,1 53855U 22114AP  23111.58334491  .00058367  00000-0  38236-2 0  9994,2 53855  53.2166 341.3919 0001319  93.2943 231.7533 15.07183289 33458,6922.949,95.542,545.727,543.901,0.0
53855.0,STARLINK-4703,PAYLOAD,2023-04-21 22:00:00,15.07225629,0.000133,53.2165,339.901,86.1214,248.5472,-0.0037957,-0.00057628,0.0,0 STARLINK-4703,1 53855U 22114AP  23111.91667824 -.00057628  00000-0 -37957-2 0  9990,2 53855  53.2165 339.9010 0001330  86.1214 248.5472 15.07225629 33506,6922.819,95.54,545.605,543.764,0.0
53855.0,STARLINK-4703,PAYLOAD,2023-04-22 00:00:02,15.07198231,0.0001326,53.2166,339.528,85.8877,341.2605,-0.00072894,-0.0001136,0.0,0 STARLINK-4703,1 53855U 22114AP  23112.00002315 -.00011360  00000-0 -72894-3 0  9992,2 53855  53.2166 339.5280 0001326  85.8877 341.2605 15.07198231  1308,6922.903,95.542,545.686,543.85,0.0
53855.0,STARLINK-4703,PAYLOAD,2023-04-22 01:17:44,15.07210326,0.0001516,53.2179,339.2883,94.3006,265.8158,0.00024488,3.447e-05,0.0,0 STARLINK-4703,1 53855U 22114AP  23112.05398763  .00003447  00000-0  24488-3 0  9993,2 53855  53.2179 339.2883 0001516  94.3006 265.8158 15.07210326 33521,6922.866,95.541,545.781,543.682,0.0
53855.0,STARLINK-4703,PAYLOAD,2023-04-22 21:59:06,15.07207893,0.0001442,53.2175,335.4285,103.6322,256.483,9.872e-05,1.22e-05,0.0,0 STARLINK-4703,1 53855U 22114AP  23112.91604286  .00001220  00000-0  98720-4 0  9996,2 53855  53.2175 335.4285 0001442 103.6322 256.4830 15.07207893 33656,6922.874,95.541,545.737,543.74,0.0
53855.0,STARLINK-4703,PAYLOAD,2023-04-23 01:10:04,15.07212149,0.0001406,53.2169,334.8323,92.2883,267.8269,0.00010723,1.35e-05,0.0,0 STARLINK-4703,1 53855U 22114AP  23113.04866354  .00001350  00000-0  10723-3 0  9997,2 53855  53.2169 334.8323 0001406  92.2883 267.8269 15.07212149 34215,6922.861,95.541,545.699,543.752,0.0
53855.0,STARLINK-4703,PAYLOAD,2023-04-23 17:04:58,15.07203809,0.0001482,53.2172,331.8626,95.1255,264.9906,1.184e-05,-1.03e-06,0.0,0 STARLINK-4703,1 53855U 22114AP  23113.71178958 -.00000103  00000-0  11840-4 0  9995,2 53855  53.2172 331.8626 0001482  95.1255 264.9906 15.07203809 34311,6922.886,95.541,545.777,543.725,0.0
53855.0,STARLINK-4703,PAYLOAD,2023-04-24 02:37:53,15.07224237,0.0001537,53.2163,330.0794,90.1453,269.9715,0.00034081,4.911e-05,0.0,0 STARLINK-4703,1 53855U 22114AP  23114.10965173  .00004911  00000-0  34081-3 0  9993,2 53855  53.2163 330.0794 0001537  90.1453 269.9715 15.07224237 33831,6922.824,95.54,545.753,543.625,0.0
53855.0,STARLINK-4703,PAYLOAD,2023-04-25 02:30:12,15.07236258,0.0001651,53.2136,325.6245,93.4412,266.6768,0.00049468,7.261e-05,0.0,0 STARLINK-4703,1 53855U 22114AP  23115.10431552  .00007261  00000-0  49468-3 0  9999,2 53855  53.2136 325.6245 0001651  93.4412 266.6768 15.07236258 34525,6922.787,95.539,545.795,543.509,0.0
53855.0,STARLINK-4703,PAYLOAD,2023-04-26 02:22:13,15.07520991,0.000396,53.2161,321.1675,44.3227,315.8081,0.0036255,0.00055825,0.0,0 STARLINK-4703,1 53855U 22114AP  23116.09876945  .00055825  00000-0  36255-2 0  9995,2 53855  53.2161 321.1675 0003960  44.3227 315.8081 15.07520991 34137,6921.915,95.521,546.521,541.039,0.0
53855.0,STARLINK-4703,PAYLOAD,2023-04-26 03:57:37,15.07834888,0.0002314,53.2164,320.8704,143.6625,216.4525,0.01164,0.00184728,0.0,0 STARLINK-4703,1 53855U 22114AP  23116.16501204  .00184728  00000-0  11640-1 0  9991,2 53855  53.2164 320.8704 0002314 143.6625 216.4525 15.07834888 34688,6920.954,95.501,544.421,541.218,0.0
53855.0,STARLINK-4703,PAYLOAD,2023-04-26 21:27:10,15.08200077,0.0001678,53.2197,317.6051,20.7943,339.3117,0.010307,0.00164705,0.0,0 STARLINK-4703,1 53855U 22114AP  23116.89386651  .00164705  00000-0  10307-1 0  9990,2 53855  53.2197 317.6051 0001678  20.7943 339.3117 15.08200077 34795,6919.837,95.478,542.863,540.541,0.0
53855.0,STARLINK-4703,PAYLOAD,2023-04-27 06:00:02,15.08836398,0.0001522,53.2162,316.0036,83.1126,52.8775,-0.0017393,-0.0002786,0.0,0 STARLINK-4703,1 53855U 22114AP  23117.25002315 -.00027860  00000-0 -17393-2 0  9998,2 53855  53.2162 316.0036 0001522  83.1126  52.8775 15.08836398 34302,6917.891,95.438,540.809,538.703,0.0
53855.0,STARLINK-4703,PAYLOAD,2023-04-27 14:00:01,15.08832122,0.0001588,53.2165,314.5067,88.157,59.4085,0.00010721,1.418e-05,0.0,0 STARLINK-4703,1 53855U 22114AP  23117.58335648  .00001418  00000-0  10721-3 0  9990,2 53855  53.2165 314.5067 0001588  88.1570  59.4085 15.08832122  1304,6917.904,95.438,540.868,538.671,0.0
53855.0,STARLINK-4703,PAYLOAD,2023-04-28 00:00:00,15.08819261,0.0001473,53.2163,312.6381,81.2807,170.7493,0.0015357,0.00024223,0.0,0 STARLINK-4703,1 53855U 22114AP  23118.00001157  .00024223  00000-0  15357-2 0  9991,2 53855  53.2163 312.6381 0001473  81.2807 170.7493 15.08819261 34417,6917.944,95.439,540.828,538.79,0.0
53855.0,STARLINK-4703,PAYLOAD,2023-04-28 14:00:01,15.0884968,0.0001436,53.2167,310.0178,94.8066,87.4885,0.00016747,2.379e-05,0.0,0 STARLINK-4703,1 53855U 22114AP  23118.58334491  .00002379  00000-0  16747-3 0  9997,2 53855  53.2167 310.0178 0001436  94.8066  87.4885 15.08849680  1302,6917.851,95.437,540.709,538.722,0.0
53855.0,STARLINK-4703,PAYLOAD,2023-04-28 22:00:00,15.08829094,0.0001263,53.2165,308.5231,84.6067,109.3148,-0.00051129,-8.413e-05,0.0,0 STARLINK-4703,1 53855U 22114AP  23118.91667824 -.00008413  00000-0 -51129-3 0  9993,2 53855  53.2165 308.5231 0001263  84.6067 109.3148 15.08829094 34554,6917.914,95.438,540.652,538.905,0.0
53855.0,STARLINK-4703,PAYLOAD,2023-04-29 14:00:01,15.08854454,0.0001223,53.2165,305.5289,94.0614,123.0693,-1.0423e-05,-4.54e-06,0.0,0 STARLINK-4703,1 53855U 22114AP  23119.58335648 -.00000454  00000-0 -10423-4 0  9993,2 53855  53.2165 305.5289 0001223  94.0614 123.0693 15.08854454  1306,6917.836,95.437,540.547,538.855,0.0
53855.0,STARLINK-4703,PAYLOAD,2023-04-29 22:00:00,15.08827521,0.0001206,53.2162,304.0341,77.1109,151.5694,9.3229e-05,1.196e-05,0.0,0 STARLINK-4703,1 53855U 22114AP  23119.91667824  .00001196  00000-0  93229-4 0  9991,2 53855  53.2162 304.0341 0001206  77.1109 151.5694 15.08827521 34700,6917.919,95.438,540.618,538.949,0.0
53855.0,STARLINK-4703,PAYLOAD,2023-04-29 22:34:50,15.08845777,0.0001447,53.2162,303.924,92.0303,268.0855,0.00027649,4.116e-05,0.0,0 STARLINK-4703,1 53855U 22114AP  23119.94086174  .00004116  00000-0  27649-3 0  9994,2 53855  53.2162 303.9240 0001447  92.0303 268.0855 15.08845777 34712,6917.863,95.437,540.729,538.727,0.0
53855.0,STARLINK-4703,PAYLOAD,2023-04-30 17:39:28,15.0883485,0.0001549,53.2163,300.3554,96.2245,263.8923,0.00019388,2.799e-05,0.0,0 STARLINK-4703,1 53855U 22114AP  23120.73574817  .00002799  00000-0  19388-3 0  9995,2 53855  53.2163 300.3554 0001549  96.2245 263.8923 15.08834850 34838,6917.896,95.438,540.833,538.69,0.0
53855.0,STARLINK-4703,PAYLOAD,2023-05-01 00:01:00,15.08842759,0.0001343,53.2157,299.1655,81.1335,278.9809,0.00014577,2.033e-05,0.0,0 STARLINK-4703,1 53855U 22114AP  23121.00070441  .00002033  00000-0  14577-3 0  9996,2 53855  53.2157 299.1655 0001343  81.1335 278.9809 15.08842759 35415,6917.872,95.437,540.666,538.808,0.0
53855.0,STARLINK-4703,PAYLOAD,2023-05-01 19:05:38,15.08839447,0.0001376,53.2162,295.5965,83.8733,276.2416,8.6375e-05,1.087e-05,0.0,0 STARLINK-4703,1 53855U 22114AP  23121.79558860  .00001087  00000-0  86375-4 0  9992,2 53855  53.2162 295.5965 0001376  83.8733 276.2416 15.08839447 35530,6917.882,95.438,540.699,538.795,0.0
53855.0,STARLINK-4703,PAYLOAD,2023-05-01 22:16:24,15.08844609,0.0001374,53.2162,295.0016,85.2205,274.8944,0.00016238,2.298e-05,0.0,0 STARLINK-4703,1 53855U 22114AP  23121.92806596  .00002298  00000-0  16238-3 0  9994,2 53855  53.2162 295.0016 0001374  85.2205 274.8944 15.08844609 35019,6917.866,95.437,540.682,538.781,0.0
53855.0,STARLINK-4703,PAYLOAD,2023-05-02 10:59:30,15.08841727,0.000137,53.2161,292.6256,79.8466,280.2681,0.00016753,2.379e-05,0.0,0 STARLINK-4703,1 53855U 22114AP  23122.45798836  .00002379  00000-0  16753-3 0  9992,2 53855  53.2161 292.6256 0001370  79.8466 280.2681 15.08841727 35636,6917.875,95.437,540.688,538.792,0.0
